INTELSAT 602 (IS-602)   
1 20315U 89087A   09010.48909547  .00000032  00000-0  10000-3 0  8223
2 20315   6.5196  68.1442 0001594 219.9984 175.8972  1.00272866 68146
INTELSAT 603 (IS-603)   
1 20523U 90021A   09011.28675063 -.00000161  00000-0  10000-3 0  3999
2 20523   6.0018  69.6905 0002003 220.4315 264.0397  1.00270139 61906
SBS-6                   
1 20872U 90091A   09010.08009539 -.00000222  00000-0  10000-3 0    39
2 20872   1.3914  81.2430 0001594 205.7031 130.7111  1.00270041 55205
INTELSAT 605 (IS-605)   
1 21653U 91055A   09010.39418631  .00000008  00000-0  10000-3 0  7273
2 21653   4.0379  74.5006 0001045 196.8041 154.6346  1.00273561 63725
INTELSAT 601 (IS-601)   
1 21765U 91075A   09009.98542247  .00000126  00000-0  10000-3 0  7050
2 21765   4.0910  74.3287 0004175 285.9989 151.5181  1.00273065 62830
INTELSAT 701 (IS-701)   
1 22871U 93066A   09010.49324705  .00000055  00000-0  10000-3 0  3097
2 22871   0.0075   7.3130 0002708 275.0253 185.3705  1.00273157 55622
INTELSAT 702 (IS-702)   
1 23124U 94034A   09010.63678291  .00000088  00000-0  10000-3 0  1413
2 23124   0.0144  20.5654 0002784 274.8770  98.9183  1.00272495 67541
INTELSAT 2 (IS-2)       
1 23175U 94040A   09011.48914970 -.00000032  00000-0  10000-3 0  3453
2 23175   0.0691 101.5497 0003293 213.4842 141.1697  1.00271377 52468
INTELSAT 704 (IS-704)   
1 23461U 95001A   09009.01816444  .00000008  00000-0  10000-3 0  8695
2 23461   0.0480 254.8032 0004297  36.8624 249.5477  1.00272257 51308
INTELSAT 705 (IS-705)   
1 23528U 95013A   09010.25624479 -.00000279  00000-0  10000-3 0  8089
2 23528   0.0183  13.6417 0003108 286.7846 211.7221  1.00270443 50494
INTELSAT 706 (IS-706)   
1 23571U 95023A   09010.98544167  .00000114  00000-0  10000-3 0  8552
2 23571   0.0104 346.1199 0002971 298.8509 230.6427  1.00270489 49994
INTELSAT 3R (IS-3R)     
1 23764U 96002A   09005.94078664 -.00000247  00000-0  00000+0 0  5918
2 23764   0.0309  89.3482 0001921 195.9690 116.0104  1.00271408 47560
HGS-3                   
1 23779U 96006A   09010.00695382  .00000158  00000-0  10000-3 0  1295
2 23779   0.0403 115.2486 0002450 173.2715 221.6348  1.00270611 47343
INTELSAT 707 (IS-707)   
1 23816U 96015A   09010.90744316 -.00000284  00000-0  10000-3 0  8005
2 23816   0.0129  37.7677 0003167 258.2382  88.1909  1.00268631 47001
GALAXY 9 (G-9)          
1 23877U 96033A   09010.08009394 -.00000221  00000-0  10000-3 0   194
2 23877   0.3787  80.8486 0001600 207.2530 129.4553  1.00269234 46280
INTELSAT 709 (IS-709)   
1 23915U 96035A   09010.73243365 -.00000183  00000-0  10000-3 0  8699
2 23915   0.0074  17.9725 0001891 296.1250 145.0840  1.00270708 46083
INTELSAT 801 (IS-801)   
1 24742U 97009A   09011.03305442 -.00000224  00000-0  10000-3 0  5681
2 24742   0.3318  87.7793 0004909 213.2994 149.9646  1.00269729 43506
GALAXY 25 (G-25)        
1 24812U 97026A   09010.49262612 -.00000160  00000-0  10000-3 0  8680
2 24812   0.0269  95.2393 0003184 191.5981 267.5476  1.00271643 42622
INTELSAT 802 (IS-802)   
1 24846U 97031A   09010.68985324  .00000157  00000-0  00000-0 0  7495
2 24846   0.0148   2.9332 0003730 306.6450  81.9934  1.00273624 42347
INTELSAT 5 (IS-5)       
1 24916U 97046A   09009.66742412 -.00000012  00000-0  10000-3 0  7006
2 24916   0.0494 226.2584 0002310  68.7666 223.5839  1.00334963 41786
INTELSAT 805 (IS-805)   
1 25371U 98037A   09010.10519560 -.00000281  00000-0  10000-3 0  3059
2 25371   0.0209  71.2123 0003089 212.8875 168.0201  1.00270687 38729
INTELSAT 7 (IS-7)       
1 25473U 98052A   09009.00557653 -.00000017  00000-0  10000-3 0  7085
2 25473   0.0295  89.2662 0003581 215.5218 234.5417  1.00272263 37798
INTELSAT 8 (IS-8)       
1 25522U 98065A   09010.65230109 -.00000055  00000-0  10000-3 0  5889
2 25522   0.0108 342.8376 0003050 297.5854 230.6791  1.00271105 37384
GALAXY 26 (G-26)        
1 25626U 99005A   09010.04513708 -.00000158  00000-0  00000+0 0  4205
2 25626   0.0069 355.1167 0003010 297.9670  99.8348  1.00270144 36290
INSAT-2E (APR-1)        
1 25666U 99016A   09010.89896723 -.00000163  00000-0  10000-3 0  2035
2 25666   0.1137  83.8078 0004927 218.5488 214.7579  1.00269604 35923
GALAXY 27 (G-27)        
1 25922U 99052A   09009.49505149  .00000065  00000-0  10000-3 0  4451
2 25922   0.0335  46.5014 0002717 250.7976 221.0965  1.00273448 34030
GALAXY 11 (G-11)        
1 26038U 99071A   09008.99331029  .00000165  00000-0  10000-3 0  6520
2 26038   0.0232 170.8540 0001295 157.2916 170.9194  1.00273703 33258
GALAXY 4R (G-4R)        
1 26298U 00020A   09011.14643998 -.00000244  00000-0  10000-3 0  5995
2 26298   2.2923  78.5965 0003031 205.8741 162.1448  1.00269719 32108
INTELSAT 9 (IS-9)       
1 26451U 00043A   09011.28231174 -.00000285  00000-0  10000-3 0  1660
2 26451   0.0440 253.3920 0001890  17.8637 243.2520  1.00268357 31017
INTELSAT 12 (IS-12)     
1 26590U 00068A   09009.01188359  .00000146  00000-0  10000-3 0  2122
2 26590   0.0553 244.6574 0002173   5.0141 268.2573  1.00269046 30052
INTELSAT 1R (IS-1R)     
1 26608U 00072A   09008.95950432 -.00000264  00000-0  10000-3 0    49
2 26608   0.0272 219.1899 0000219 121.8151  68.0205  1.00270059 29900
INTELSAT 10 (IS-10)     
1 26766U 01019A   09010.92118977 -.00000024  00000-0  10000-3 0  2952
2 26766   0.0496 107.6213 0001940 132.2138 270.8144  1.00272061 28096
INTELSAT 901 (IS-901)   
1 26824U 01024A   09011.20718053 -.00000141  00000-0  00000+0 0  3592
2 26824   0.0061  14.3086 0003296 266.7019 246.4062  1.00271422 27848
INTELSAT 902 (IS-902)   
1 26900U 01039A   09009.86638308  .00000038  00000-0  10000-3 0  3281
2 26900   0.0214  93.3143 0003439 211.4558 178.6301  1.00272526 27004
INTELSAT 904 (IS-904)   
1 27380U 02007A   09010.59488679  .00000051  00000-0  10000-3 0  3416
2 27380   0.0119  19.6615 0003586 272.9208  91.7990  1.00270840 25265
INTELSAT 903 (IS-903)   
1 27403U 02016A   09009.89648815 -.00000233  00000-0  10000-3 0  1650
2 27403   0.0139 319.8923 0003211 323.1841 114.6922  1.00271167 24911
INTELSAT 905 (IS-905)   
1 27438U 02027A   09011.18012818 -.00000184  00000-0  00000+0 0   326
2 27438   0.0215 331.9520 0005643 302.4351 236.7867  1.00272121 24240
GALAXY 3C (G-3C)        
1 27445U 02030A   09010.15409964 -.00000147  00000-0  00000+0 0  9773
2 27445   0.0250 178.1979 0000132 205.1525  46.8813  1.00270221 24112
INTELSAT 906 (IS-906)   
1 27513U 02041A   09010.81228131  .00000016  00000-0  10000-3 0  1219
2 27513   0.0088 357.8821 0002897 304.8421 164.2797  1.00272575 23299
INTELSAT 907 (IS-907)   
1 27683U 03007A   09009.83819444 -.00000198  00000-0  10000-3 0  7323
2 27683   0.0120  92.7155 0003770 207.5670  83.4439  1.00266978 21647
GALAXY 12 (G-12)        
1 27715U 03013B   09010.47406610  .00000027  00000-0  10000-3 0   429
2 27715   0.0092   3.1753 0002335 260.2007 254.4955  1.00272724 21163
GALAXY 23 (G-23)        
1 27854U 03034A   09010.47180894  .00000016  00000-0  10000-3 0  9178
2 27854   0.0066 349.7896 0003119 292.0965 237.0759  1.00272391 19922
GALAXY 13 (HORIZONS-1)  
1 27954U 03044A   09009.47182978  .00000055  00000-0  10000-3 0  8401
2 27954   0.0021   7.7703 0001635 272.7943 231.4120  1.00271762 19396
INTELSAT 10-02          
1 28358U 04022A   09006.11946657  .00000010  00000-0  10000-3 0  6574
2 28358   0.0214 119.8400 0000492 131.1880 256.8333  1.00272954 16743
GALAXY 28 (G-28)        
1 28702U 05022A   09010.12912529 -.00000181  00000-0  10000-3 0  5967
2 28702   0.0120  48.3074 0003384 326.0851  52.8356  1.00270154 13051
GALAXY 14 (G-14)        
1 28790U 05030A   09008.31569774  .00000049  00000-0  10000-3 0  6458
2 28790   0.0161  25.3919 0002539 256.5499 174.7105  1.00272840 12455
GALAXY 15 (G-15)        
1 28884U 05041A   09009.38641330  .00000086  00000-0  10000-3 0  5530
2 28884   0.0104  17.0527 0002571 272.2359 185.8635  1.00273208 11892
GALAXY 16 (G-16)        
1 29236U 06023A   09011.34538372 -.00000127  00000-0  10000-3 0  4427
2 29236   0.0354 176.8834 0003275 110.6782 208.7327  1.00270585  9438
GALAXY 17 (G-17)        
1 31307U 07016B   09011.47314613 -.00000175  00000-0  10000-3 0  3215
2 31307   0.0034   7.1920 0003411 281.4965 261.7337  1.00270269  6244
INTELSAT 11 (IS-11)     
1 32253U 07044B   09010.91846272 -.00000268  00000-0  10000-3 0  1879
2 32253   0.0260  84.6146 0003000 213.4739  99.9976  1.00270117  4693
HORIZONS 2              
1 32388U 07063B   09010.08556718 -.00000248  00000-0  00000-0 0  1717
2 32388   0.0267 278.8471 0002704  17.1809 130.4438  1.00270005  4032
GALAXY 18 (G-18)        
1 32951U 08024A   09006.50366094  .00000045  00000-0  10000-3 0  1155
2 32951   0.0163  55.8207 0003085 227.6480 241.0583  1.00273258  2333
